NORAD_CAT_ID,OBJECT_NAME,OBJECT_TYPE,EPOCH,MEAN_MOTION,ECCENTRICITY,INCLINATION,RA_OF_ASC_NODE,ARG_OF_PERICENTER,MEAN_ANOMALY,BSTAR,MEAN_MOTION_DOT,MEAN_MOTION_DDOT,TLE_LINE0,TLE_LINE1,TLE_LINE2,SEMIMAJOR_AXIS,PERIOD,APOGEE,PERIGEE,DECAYED
54162.0,STARLINK-5273,PAYLOAD,2023-02-01 18:10:01,15.08838506,0.000161,53.2173,55.5843,82.9341,277.1834,-1.6419e-06,-3.14e-06,0.0,0 STARLINK-5273,1 54162U 22141F   23032.75696446 -.00000314  00000-0 -16419-5 0  9991,2 54162  53.2173  55.5843 0001610  82.9341 277.1834 15.08838506 14838,6917.885,95.438,540.864,538.636,0.0
54162.0,STARLINK-5273,PAYLOAD,2023-02-02 06:53:07,15.08833688,0.0001303,53.2171,53.2062,104.5718,255.5419,7.6902e-06,-1.66e-06,0.0,0 STARLINK-5273,1 54162U 22141F   23033.28689159 -.00000166  00000-0  76902-5 0  9990,2 54162  53.2171  53.2062 0001303 104.5718 255.5419 15.08833688 14916,6917.9,95.438,540.666,538.863,0.0
54162.0,STARLINK-5273,PAYLOAD,2023-02-03 11:30:03,15.08845016,0.0001163,53.2162,47.8537,93.2212,266.8914,0.00010191,1.335e-05,0.0,0 STARLINK-5273,1 54162U 22141F   23034.47920505  .00001335  00000-0  10191-3 0  9999,2 54162  53.2162  47.8537 0001163  93.2212 266.8914 15.08845016 15092,6917.865,95.437,540.535,538.926,0.0
54162.0,STARLINK-5273,PAYLOAD,2023-02-04 09:45:27,15.08850609,0.0001161,53.2152,43.6897,97.7213,262.3911,0.00032733,4.927e-05,0.0,0 STARLINK-5273,1 54162U 22141F   23035.40656458  .00004927  00000-0  32733-3 0  9992,2 54162  53.2152  43.6897 0001161  97.7213 262.3911 15.08850609 15230,6917.848,95.437,540.516,538.91,0.0
54162.0,STARLINK-5273,PAYLOAD,2023-02-04 17:42:23,15.08843017,0.0001235,53.2163,42.2034,84.6334,275.4799,0.00014788,2.067e-05,0.0,0 STARLINK-5273,1 54162U 22141F   23035.73776799  .00002067  00000-0  14788-3 0  9992,2 54162  53.2163  42.2034 0001235  84.6334 275.4799 15.08843017 15280,6917.871,95.437,540.591,538.882,0.0
54162.0,STARLINK-5273,PAYLOAD,2023-02-05 09:36:14,15.08840593,0.0001363,53.2154,39.2291,89.4041,270.7107,9.9176e-05,1.291e-05,0.0,0 STARLINK-5273,1 54162U 22141F   23036.40017040  .00001291  00000-0  99176-4 0  9997,2 54162  53.2154  39.2291 0001363  89.4041 270.7107 15.08840593 15389,6917.879,95.438,540.686,538.801,0.0
54162.0,STARLINK-5273,PAYLOAD,2023-02-05 17:33:10,15.08842045,0.0001389,53.2156,37.7433,86.2065,273.9086,0.0001404,1.947e-05,0.0,0 STARLINK-5273,1 54162U 22141F   23036.73137062  .00001947  00000-0  14040-3 0  9994,2 54162  53.2156  37.7433 0001389  86.2065 273.9086 15.08842045 15432,6917.874,95.437,540.7,538.778,0.0
54162.0,STARLINK-5273,PAYLOAD,2023-02-06 09:27:01,15.08853727,0.0001443,53.2157,34.7689,90.29,269.8257,0.0003715,5.632e-05,0.0,0 STARLINK-5273,1 54162U 22141F   23037.39376676  .00005632  00000-0  37150-3 0  9995,2 54162  53.2157  34.7689 0001443  90.2900 269.8257 15.08853727 15531,6917.838,95.437,540.702,538.705,0.0
54162.0,STARLINK-5273,PAYLOAD,2023-02-07 02:56:16,15.08845686,0.0001499,53.2153,31.4979,89.6849,270.4314,0.00021696,3.167e-05,0.0,0 STARLINK-5273,1 54162U 22141F   23038.12240888  .00003167  00000-0  21696-3 0  9991,2 54162  53.2153  31.4979 0001499  89.6849 270.4314 15.08845686 15647,6917.863,95.437,540.765,538.691,0.0
54162.0,STARLINK-5273,PAYLOAD,2023-02-07 09:17:48,15.08857233,0.0001439,53.2157,30.3077,85.8031,274.3125,0.00040627,6.187e-05,0.0,0 STARLINK-5273,1 54162U 22141F   23038.38736406  .00006187  00000-0  40627-3 0  9995,2 54162  53.2157  30.3077 0001439  85.8031 274.3125 15.08857233 15681,6917.828,95.436,540.688,538.697,0.0
54162.0,STARLINK-5273,PAYLOAD,2023-02-08 04:22:26,15.08843233,0.0001459,53.2169,26.7402,99.4271,260.6886,6.7229e-05,7.82e-06,0.0,0 STARLINK-5273,1 54162U 22141F   23039.18224645  .00000782  00000-0  67229-4 0  9994,2 54162  53.2169  26.7402 0001459  99.4271 260.6886 15.08843233 15805,6917.871,95.437,540.745,538.726,0.0
54162.0,STARLINK-5273,PAYLOAD,2023-02-08 10:43:58,15.08872363,0.0001183,53.217,25.5512,91.9355,268.1772,0.0013688,0.00021583,0.0,0 STARLINK-5273,1 54162U 22141F   23039.44720141  .00021583  00000-0  13688-2 0  9995,2 54162  53.2170  25.5512 0001183  91.9355 268.1772 15.08872363 15847,6917.781,95.436,540.465,538.828,0.0
54162.0,STARLINK-5273,PAYLOAD,2023-02-09 02:37:50,15.08841198,0.0001243,53.2169,22.578,123.6333,236.4778,0.0014634,0.00023079,0.0,0 STARLINK-5273,1 54162U 22141F   23040.10961095  .00023079  00000-0  14634-2 0  9999,2 54162  53.2169  22.5780 0001243 123.6333 236.4778 15.08841198 15942,6917.877,95.437,540.602,538.882,0.0
54162.0,STARLINK-5273,PAYLOAD,2023-02-09 10:34:45,15.08873685,0.0001224,53.2169,21.0913,119.475,240.6365,0.002801,0.00044613,0.0,0 STARLINK-5273,1 54162U 22141F   23040.44080628  .00044613  00000-0  28010-2 0  9990,2 54162  53.2169  21.0913 0001224 119.4750 240.6365 15.08873685 15999,6917.777,95.435,540.489,538.796,0.0
54162.0,STARLINK-5273,PAYLOAD,2023-02-10 10:25:33,15.08867093,0.0001194,53.2167,16.6312,94.0318,266.081,0.0030056,0.00047907,0.0,0 STARLINK-5273,1 54162U 22141F   23041.43441540  .00047907  00000-0  30056-2 0  9996,2 54162  53.2167  16.6312 0001194  94.0318 266.0810 15.08867093 16145,6917.798,95.436,540.489,538.837,0.0
54162.0,STARLINK-5273,PAYLOAD,2023-02-10 13:36:19,15.08859477,0.0001757,53.2155,16.0327,150.5915,209.5176,0.0010845,0.00017023,0.0,0 STARLINK-5273,1 54162U 22141F   23041.56689099  .00017023  00000-0  10845-2 0  9993,2 54162  53.2155  16.0327 0001757 150.5915 209.5176 15.08859477 16164,6917.821,95.436,540.901,538.47,0.0
54162.0,STARLINK-5273,PAYLOAD,2023-02-11 00:44:01,15.08841611,0.0001124,53.2169,13.9554,109.3324,250.779,0.00062278,9.638e-05,0.0,0 STARLINK-5273,1 54162U 22141F   23042.03057600  .00009638  00000-0  62278-3 0  9994,2 54162  53.2169  13.9554 0001124 109.3324 250.7790 15.08841611 16230,6917.875,95.437,540.518,538.963,0.0
54162.0,STARLINK-5273,PAYLOAD,2023-02-11 07:05:33,15.08880623,0.0001069,53.2166,12.7652,107.3331,252.7779,0.0015182,0.00023984,0.0,0 STARLINK-5273,1 54162U 22141F   23042.29552775  .00023984  00000-0  15182-2 0  9996,2 54162  53.2166  12.7652 0001069 107.3331 252.7779 15.08880623 16276,6917.756,95.435,540.361,538.882,0.0
54162.0,STARLINK-5273,PAYLOAD,2023-02-12 03:45:34,15.08864834,0.0001649,53.2175,8.8981,88.1778,271.9403,0.0014596,0.00023034,0.0,0 STARLINK-5273,1 54162U 22141F   23043.15665202  .00023034  00000-0  14596-2 0  9996,2 54162  53.2175   8.8981 0001649  88.1778 271.9403 15.08864834 16400,6917.804,95.436,540.81,538.529,0.0
54162.0,STARLINK-5273,PAYLOAD,2023-02-12 06:56:20,15.08862685,0.0001426,53.2163,8.3025,83.109,277.0065,0.0017288,0.0002735,0.0,0 STARLINK-5273,1 54162U 22141F   23043.28913139  .00027350  00000-0  17288-2 0  9991,2 54162  53.2163   8.3025 0001426  83.1090 277.0065 15.08862685 16421,6917.811,95.436,540.663,538.69,0.0
54162.0,STARLINK-5273,PAYLOAD,2023-02-12 14:53:17,15.08819429,0.0002619,53.2155,6.814,99.6573,260.4715,0.0017589,0.00027801,0.0,0 STARLINK-5273,1 54162U 22141F   23043.62033801  .00027801  00000-0  17589-2 0  9993,2 54162  53.2155   6.8140 0002619  99.6573 260.4715 15.08819429 16477,6917.943,95.439,541.62,537.996,0.0
54162.0,STARLINK-5273,PAYLOAD,2023-02-13 06:47:08,15.08842754,0.0001598,53.2169,3.8443,88.5038,271.6137,0.0012652,0.00019907,0.0,0 STARLINK-5273,1 54162U 22141F   23044.28273729  .00019907  00000-0  12652-2 0  9995,2 54162  53.2169   3.8443 0001598  88.5038 271.6137 15.08842754 16573,6917.872,95.437,540.842,538.631,0.0
54162.0,STARLINK-5273,PAYLOAD,2023-02-13 14:44:04,15.08828659,0.0002305,53.2168,2.3572,79.7614,280.3638,0.00015791,2.225e-05,0.0,0 STARLINK-5273,1 54162U 22141F   23044.61394264  .00002225  00000-0  15791-3 0  9993,2 54162  53.2168   2.3572 0002305  79.7614 280.3638 15.08828659 16625,6917.915,95.438,541.375,538.185,0.0
54162.0,STARLINK-5273,PAYLOAD,2023-02-14 03:27:09,15.08844802,0.0001067,53.2172,359.9783,78.2261,281.8851,0.0005788,8.937e-05,0.0,0 STARLINK-5273,1 54162U 22141F   23045.14385990  .00008937  00000-0  57880-3 0  9999,2 54162  53.2172 359.9783 0001067  78.2261 281.8851 15.08844802 16701,6917.866,95.437,540.469,538.993,0.0
54162.0,STARLINK-5273,PAYLOAD,2023-02-14 06:37:55,15.08853368,0.0001321,53.2168,359.3828,81.2312,278.883,0.0009147,0.00014305,0.0,0 STARLINK-5273,1 54162U 22141F   23045.27633888  .00014305  00000-0  91470-3 0  9994,2 54162  53.2168 359.3828 0001321  81.2312 278.8830 15.08853368 16726,6917.84,95.437,540.618,538.791,0.0
54162.0,STARLINK-5273,PAYLOAD,2023-02-15 03:17:56,15.08857158,0.0001016,53.2161,355.5161,95.704,264.4068,0.0007948,0.0001239,0.0,0 STARLINK-5273,1 54162U 22141F   23046.13745995  .00012390  00000-0  79480-3 0  9992,2 54162  53.2161 355.5161 0001016  95.7040 264.4068 15.08857158 16855,6917.828,95.436,540.396,538.99,0.0
54162.0,STARLINK-5273,PAYLOAD,2023-02-15 20:47:11,15.08855942,0.0001128,53.2162,352.2462,89.9291,270.183,0.0012008,0.00018883,0.0,0 STARLINK-5273,1 54162U 22141F   23046.86609979  .00018883  00000-0  12008-2 0  9998,2 54162  53.2162 352.2462 0001128  89.9291 270.1830 15.08855942 16963,6917.832,95.437,540.477,538.916,0.0
54162.0,STARLINK-5273,PAYLOAD,2023-02-16 01:33:20,15.08877755,0.000114,53.2165,351.3545,96.1899,263.9223,0.0020832,0.00033056,0.0,0 STARLINK-5273,1 54162U 22141F   23047.06481621  .00033056  00000-0  20832-2 0  9996,2 54162  53.2165 351.3545 0001140  96.1899 263.9223 15.08877755 16991,6917.765,95.435,540.419,538.841,0.0
54162.0,STARLINK-5273,PAYLOAD,2023-02-16 12:41:01,15.08867333,0.0001247,53.2161,349.2722,92.8511,267.2624,0.0011673,0.00018352,0.0,0 STARLINK-5273,1 54162U 22141F   23047.52849459  .00018352  00000-0  11673-2 0  9999,2 54162  53.2161 349.2722 0001247  92.8511 267.2624 15.08867333 17064,6917.797,95.436,540.524,538.799,0.0
54162.0,STARLINK-5273,PAYLOAD,2023-02-17 01:24:08,15.08810909,0.000174,53.2171,346.8952,109.6446,250.4734,0.0012766,0.00020071,0.0,0 STARLINK-5273,1 54162U 22141F   23048.05842912  .00020071  00000-0  12766-2 0  9990,2 54162  53.2171 346.8952 0001740 109.6446 250.4734 15.08810909 17147,6917.969,95.439,541.038,538.631,0.0
